<html>
<head>
<script src="https://cdn.bootcdn.net/ajax/libs/jquery/3.5.1/jquery.min.js"></script>
<link rel="stylesheet" href="https://cdn.staticfile.org/fancybox/3.5.2/jquery.fancybox.min.css">
<script src="https://cdn.staticfile.org/fancybox/3.5.2/jquery.fancybox.min.js"></script>
<!-- MDUI CSS -->
<link
  rel="stylesheet"
  href="https://cdn.jsdelivr.net/npm/mdui@1.0.1/dist/css/mdui.min.css"
  integrity="sha384-cLRrMq39HOZdvE0j6yBojO4+1PrHfB7a9l5qLcmRm/fiWXYY+CndJPmyu5FV/9Tw"
  crossorigin="anonymous"
/>

<!-- MDUI JavaScript -->
<script
  src="https://cdn.jsdelivr.net/npm/mdui@1.0.1/dist/js/mdui.min.js"
  integrity="sha384-gCMZcshYKOGRX9r6wbDrvF+TcCCswSHFucUzUPwka+Gr+uHgjlYvkABr95TCOz3A"
  crossorigin="anonymous"
></script>
<link rel="stylesheet" href="/css.css">
<title>Spica2020 - 天文探索者</title></head>
<body>
<div class="mdui-container">
  <div class="mdui-toolbar-spacer">
    <a href="javascript:;" class="mdui-btn mdui-btn-icon"><i class="mdui-icon material-icons">menu</i></a>
    <span class="mdui-typo-title">Spica2020</span>
    <div class="mdui-toolbar"></div>
    <a href="javascript:;" class="mdui-btn mdui-btn-icon"><i class="mdui-icon material-icons">search</i></a>
    <a href="javascript:;" class="mdui-btn mdui-btn-icon"><i class="mdui-icon material-icons">refresh</i></a>
    <a href="javascript:;" class="mdui-btn mdui-btn-icon"><i class="mdui-icon material-icons">more_vert</i></a>
  </div>
<h1>小行星</h1>
<h2>2021 AA</h2>
<p>在2021年1月1日飞掠地球，最近距离约为240000km（0.62 LD），直径约为10-23米。</p>
<pre>
<b>轨道信息:  2021 AA</b>
   Perihelion 2020 Nov 7.52770 +/- 0.0292 TT = 12:39:53 (JD 2459161.02770)
Epoch 2021 Jan  3.0 TT = JDT 2459217.5   Earth MOID: 0.0002   Me: 0.0109
M  54.43508543 +/- 0.07             (J2000 ecliptic)          Auto-Find
n   0.96392539 +/- 0.000797         Peri.  236.17708 +/- 0.010
a   1.01494015 +/- 0.00056          Node   100.99426 +/- 0.00020
e   0.5922556 +/- 0.00042           Incl.   24.11281 +/- 0.026
P   1.02/373.47d           <a title="Size is probably 10 to 23 meters"
href="https://www.minorplanetcenter.net/iau/lists/Sizes.html">H（反照率）</a> 27.0   G  0.15   U（不确定性）  8.0
</pre>
<p>轨道信息来自Find_Orb</p>
<a href="/orb.png" data-fancybox="gallery" /><img src="https://cdn.jsdelivr.net/gh/LDCele/ldcele.github.io@main/orb.png" alt="2021 AA 轨道图（来源：IAU Minor Planet Center）" /></a>
<p>2021 AA 轨道图（来源：IAU Minor Planet Center）</p>
<div class="mdui-divider"></div>
<h1>航天器</h1>
<h2>嫦娥5号</h2>
<p>绝对星等：26.59</p>
<p>自转周期：24.5 +/- 0.5 分钟<br>  >11.8 分钟</p>
<pre>   Perigee 2020 Nov 23.89956 +/- 4.56e-5 TT = 21:35:21 (JD 2459177.39956)
Epoch 2020 Nov 27.0 TT = JDT 2459180.5                        Auto-Find
M 105.30206338 +/- 0.0047           (J2000 equator)
n  33.96356110 +/- 0.00165          Peri.  228.52898 +/- 0.0039
a203826.834 +/- 6.59                Node     0.55170 +/- 0.0039
e   0.9741402 +/- 1.15e-6           Incl.   20.62513 +/- 0.00018
P  10.60d                  H 26.6   G  0.15   U  8.4
q 5270.91350 +/- 0.339    Q 402382.755 +/- 12.9
718 of 1030 observations 2020 Nov. 25-27; mean residual 1".43

LAUNCH at 23 Nov 2020 21:41:28.98 lat -20.46167 lon W108.17245
</pre>
</div>
</body>
</html>
